[{"OBJECT_NAME":"STARLINK-32932","OBJECT_ID":"2025-037G","EPOCH":"2026-03-09T23:21:37.969632","MEAN_MOTION":14.98322007,"ECCENTRICITY":0.00027887,"INCLINATION":70.0031,"RA_OF_ASC_NODE":353.7766,"ARG_OF_PERICENTER":257.9501,"MEAN_ANOMALY":102.1346,"EPHEMERIS_TYPE":0,"CLASSIFICATION_TYPE":"U","NORAD_CAT_ID":63083,"ELEMENT_SET_NO":999,"REV_AT_EPOCH":5850,"BSTAR":0.00098467625,"MEAN_MOTION_DOT":0.00011673,"MEAN_MOTION_DDOT":0},{"OBJECT_NAME":"CZ-4C DEB","OBJECT_ID":"2018-031C","EPOCH":"2026-03-09T22:35:49.335936","MEAN_MOTION":15.00077094,"ECCENTRICITY":0.00045193,"INCLINATION":97.7854,"RA_OF_ASC_NODE":153.1131,"ARG_OF_PERICENTER":226.9779,"MEAN_ANOMALY":133.1066,"EPHEMERIS_TYPE":0,"CLASSIFICATION_TYPE":"U","NORAD_CAT_ID":43261,"ELEMENT_SET_NO":999,"REV_AT_EPOCH":42952,"BSTAR":0.00069836513,"MEAN_MOTION_DOT":8.649e-5,"MEAN_MOTION_DDOT":0}]
